STARLINK-33710          
1 63434U 25069B   26194.57508963  .00006858  00000+0  21385-3 0  9995
2 63434  53.1569 270.2591 0000735  55.5416 304.5656 15.34408047 72787
STARLINK-33733          
1 63435U 25069C   26194.45791952 -.00003796  00000+0 -10136-3 0  9997
2 63435  53.1579 272.3795 0000961  36.4459 323.6609 15.34373900 72749
STARLINK-33638          
1 63436U 25069D   26194.82510059  .00097040  00000+0  29013-2 0  9992
2 63436  53.1596 268.9759 0003458 178.5445 181.5568 15.33792401 72821
STARLINK-33726          
1 63437U 25069E   26195.22302990  .00028013  00000+0  51006-3 0  9993
2 63437  53.1595 265.7689 0001771  95.0729 265.0482 15.49301142 72853
STARLINK-33681          
1 63438U 25069F   26194.50363158  .00003043  00000+0  10128-3 0  9993
2 63438  53.1582 270.5238 0001292  74.7769 285.3376 15.34363356 72766
STARLINK-33730          
1 63439U 25069G   26194.51252940  .00006598  00000+0  20614-3 0  9990
2 63439  53.1579 272.0111 0001090  82.2001 277.9125 15.34413945 72757
STARLINK-33743          
1 63440U 25069H   26194.53357241  .00011667  00000+0  35583-3 0  9998
2 63440  53.1580 272.1397 0001118  82.5345 277.5785 15.34405740 72643
STARLINK-33715          
1 63441U 25069J   26195.22855419  .00009486  00000+0  29154-3 0  9999
2 63441  53.1578 267.2195 0001246 117.0254 243.0876 15.34398755 72889
STARLINK-33762          
1 63442U 25069K   26194.73739300  .00013680  00000+0  41520-3 0  9997
2 63442  53.1582 271.2813 0000854  74.2459 285.8637 15.34405970 72799
STARLINK-33753          
1 63443U 25069L   26194.52515559  .00009098  00000+0  27998-3 0  9994
2 63443  53.1590 272.0871 0000994  85.3854 274.7262 15.34412087 72742
STARLINK-33747          
1 63444U 25069M   26194.73318678  .00007646  00000+0  23714-3 0  9990
2 63444  53.1579 271.2536 0001208  70.7458 289.3675 15.34407380 72724
STARLINK-33659          
1 63445U 25069N   26195.14385422  .00014090  00000+0  43857-3 0  9999
2 63445  53.1579 267.4037 0001022  87.7868 272.3252 15.33574386 72829
STARLINK-33746          
1 63446U 25069P   26194.53567669  .00011911  00000+0  36298-3 0  9997
2 63446  53.1589 272.1496 0001007  85.8507 274.2611 15.34409003 72706
STARLINK-33799          
1 63447U 25069Q   26195.16668980  .00048299  00000+0  14728-2 0  9998
2 63447  53.1594 275.2590 0001405  86.6159 333.1528 15.33497534  5866
STARLINK-33797          
1 63448U 25069R   26195.20387348  .00015792  00000+0  47757-3 0  9991
2 63448  53.1592 269.2163 0001124  81.8893 278.2237 15.34397472 72797
STARLINK-33798          
1 63449U 25069S   26195.20597287  .00012071  00000+0  36770-3 0  9997
2 63449  53.1590 269.2122 0001188  96.0076 264.1062 15.34410607 72585
STARLINK-33736          
1 63450U 25069T   26194.72476630  .00012506  00000+0  38043-3 0  9991
2 63450  53.1573 271.2013 0000860  92.8867 267.2234 15.34417122 72739
STARLINK-33740          
1 63451U 25069U   26195.22343721  .00009898  00000+0  29412-3 0  9992
2 63451  53.1593 267.1887 0001270 104.4809 255.6335 15.35417509 72774
STARLINK-33763          
1 63452U 25069V   26194.47895484  .00012806  00000+0  38942-3 0  9998
2 63452  53.1593 272.4966 0001188  83.8796 276.2342 15.34405481 72744
STARLINK-33784          
1 63453U 25069W   26195.22153608  .00011231  00000+0  39068-3 0  9999
2 63453  53.1593 275.0087 0000928  87.3301 272.7806 15.30203995 72771
STARLINK-33768          
1 63454U 25069X   26194.48105821  .00015105  00000+0  45720-3 0  9997
2 63454  53.1591 272.5070 0001095  62.2730 297.8384 15.34406152 72737
STARLINK-33761          
1 63455U 25069Y   26194.52725713  .00007359  00000+0  22868-3 0  9991
2 63455  53.1589 272.0860 0001162  69.2396 290.8731 15.34405022 72753
STARLINK-33737          
1 63456U 25069Z   26194.53146109  .00016877  00000+0  50983-3 0  9993
2 63456  53.1591 272.1072 0000703  71.5365 288.5714 15.34378665 72640
STARLINK-33795          
1 63457U 25069AA  26195.20176708  .00011560  00000+0  35281-3 0  9995
2 63457  53.1592 269.1910 0001183  90.6383 269.4755 15.34393491 72742
STARLINK-33756          
1 63458U 25069AB  26194.73529002  .00012734  00000+0  38739-3 0  9997
2 63458  53.1590 271.2443 0001550  59.8288 300.2868 15.34399589 72782
STARLINK-33780          
1 63459U 25069AC  26195.19965911  .00007374  00000+0  22916-3 0  9996
2 63459  53.1590 269.1697 0000699  55.1440 304.9629 15.34400407 72746
STARLINK-33679          
1 63460U 25070A   26195.21540804  .00010060  00000+0  37446-3 0  9993
2 63460  42.9992 265.5675 0000804 242.6709 117.4061 15.27593097 72326
STARLINK-33706          
1 63461U 25070B   26195.21925940  .00007883  00000+0  29563-3 0  9992
2 63461  42.9964 265.5613 0000877 199.1209 160.9610 15.27585262 72327
STARLINK-33691          
1 63462U 25070C   26195.16786073  .00011136  00000+0  41345-3 0  9997
2 63462  43.0072 265.1820 0003637 298.3794  61.6691 15.27587961 72272
STARLINK-33696          
1 63463U 25070D   26195.19356117  .00011862  00000+0  43971-3 0  9996
2 63463  43.0070 265.3788 0003750 289.3612  70.6834 15.27591246 72327
