OBJECT_NAME,OBJECT_ID,EPOCH,MEAN_MOTION,ECCENTRICITY,INCLINATION,RA_OF_ASC_NODE,ARG_OF_PERICENTER,MEAN_ANOMALY,EPHEMERIS_TYPE,CLASSIFICATION_TYPE,NORAD_CAT_ID,ELEMENT_SET_NO,REV_AT_EPOCH,BSTAR,MEAN_MOTION_DOT,MEAN_MOTION_DDOT
STARLINK-33710,2025-069B,2026-07-13T13:48:07.744032,15.34408047,.0000735,53.1569,270.2591,55.5416,304.5656,0,U,63434,999,7278,.21385E-3,.6858E-4,0
STARLINK-33733,2025-069C,2026-07-13T10:59:24.246528,15.34373900,.00009615,53.1579,272.3795,36.4459,323.6609,0,U,63435,999,7274,-.10135512E-3,-.3796E-4,0
STARLINK-33638,2025-069D,2026-07-13T19:48:08.690976,15.33792401,.0003458,53.1596,268.9759,178.5445,181.5568,0,U,63436,999,7282,.29013E-2,.9704E-3,0
STARLINK-33726,2025-069E,2026-07-14T05:21:09.783360,15.49301142,.0001771,53.1595,265.7689,95.0729,265.0482,0,U,63437,999,7285,.51006E-3,.28013E-3,0
STARLINK-33681,2025-069F,2026-07-13T12:05:13.768512,15.34363356,.0001292,53.1582,270.5238,74.7769,285.3376,0,U,63438,999,7276,.10128239E-3,.3043E-4,0
STARLINK-33730,2025-069G,2026-07-13T12:18:02.540160,15.34413945,.000109,53.1579,272.0111,82.2001,277.9125,0,U,63439,999,7275,.20614E-3,.6598E-4,0
STARLINK-33743,2025-069H,2026-07-13T12:48:20.656224,15.34405740,.0001118,53.1580,272.1397,82.5345,277.5785,0,U,63440,999,7264,.35583E-3,.11667E-3,0
STARLINK-33715,2025-069J,2026-07-14T05:29:07.082016,15.34398755,.0001246,53.1578,267.2195,117.0254,243.0876,0,U,63441,999,7288,.29154E-3,.9486E-4,0
STARLINK-33762,2025-069K,2026-07-13T17:41:50.755200,15.34405970,.0000854,53.1582,271.2813,74.2459,285.8637,0,U,63442,999,7279,.4152E-3,.1368E-3,0
STARLINK-33753,2025-069L,2026-07-13T12:36:13.442976,15.34412087,.0000994,53.1590,272.0871,85.3854,274.7262,0,U,63443,999,7274,.27998E-3,.9098E-4,0
STARLINK-33747,2025-069M,2026-07-13T17:35:47.337792,15.34407380,.0001208,53.1579,271.2536,70.7458,289.3675,0,U,63444,999,7272,.23714E-3,.7646E-4,0
STARLINK-33659,2025-069N,2026-07-14T03:27:09.004608,15.33574386,.0001022,53.1579,267.4037,87.7868,272.3252,0,U,63445,999,7282,.43857E-3,.1409E-3,0
STARLINK-33746,2025-069P,2026-07-13T12:51:22.466016,15.34409003,.0001007,53.1589,272.1496,85.8507,274.2611,0,U,63446,999,7270,.36298E-3,.11911E-3,0
STARLINK-33799,2025-069Q,2026-07-14T04:00:01.998720,15.33497534,.0001405,53.1594,275.2590,86.6159,333.1528,0,U,63447,999,586,.14728E-2,.48299E-3,0
STARLINK-33797,2025-069R,2026-07-14T04:53:34.668672,15.34397472,.0001124,53.1592,269.2163,81.8893,278.2237,0,U,63448,999,7279,.47757E-3,.15792E-3,0
STARLINK-33798,2025-069S,2026-07-14T04:56:36.055968,15.34410607,.0001188,53.1590,269.2122,96.0076,264.1062,0,U,63449,999,7258,.3677E-3,.12071E-3,0
STARLINK-33736,2025-069T,2026-07-13T17:23:39.808320,15.34417122,.000086,53.1573,271.2013,92.8867,267.2234,0,U,63450,999,7273,.38043E-3,.12506E-3,0
STARLINK-33740,2025-069U,2026-07-14T05:21:44.974944,15.35417509,.000127,53.1593,267.1887,104.4809,255.6335,0,U,63451,999,7277,.29412E-3,.9898E-4,0
STARLINK-33763,2025-069V,2026-07-13T11:29:41.698176,15.34405481,.0001188,53.1593,272.4966,83.8796,276.2342,0,U,63452,999,7274,.38942092E-3,.12806E-3,0
STARLINK-33784,2025-069W,2026-07-14T05:19:00.717312,15.30203995,.0000928,53.1593,275.0087,87.3301,272.7806,0,U,63453,999,7277,.39068E-3,.11231E-3,0
STARLINK-33768,2025-069X,2026-07-13T11:32:43.429344,15.34406152,.00010954,53.1591,272.5070,62.2730,297.8384,0,U,63454,999,7273,.45720328E-3,.15105E-3,0
STARLINK-33761,2025-069Y,2026-07-13T12:39:15.016032,15.34405022,.0001162,53.1589,272.0860,69.2396,290.8731,0,U,63455,999,7275,.22868E-3,.7359E-4,0
STARLINK-33737,2025-069Z,2026-07-13T12:45:18.238176,15.34378665,.0000703,53.1591,272.1072,71.5365,288.5714,0,U,63456,999,7264,.50983E-3,.16877E-3,0
STARLINK-33795,2025-069AA,2026-07-14T04:50:32.675712,15.34393491,.0001183,53.1592,269.1910,90.6383,269.4755,0,U,63457,999,7274,.35281E-3,.1156E-3,0
STARLINK-33756,2025-069AB,2026-07-13T17:38:49.057728,15.34399589,.000155,53.1590,271.2443,59.8288,300.2868,0,U,63458,999,7278,.38739E-3,.12734E-3,0
STARLINK-33780,2025-069AC,2026-07-14T04:47:30.547104,15.34400407,.0000699,53.1590,269.1697,55.1440,304.9629,0,U,63459,999,7274,.22916E-3,.7374E-4,0
STARLINK-33679,2025-070A,2026-07-14T05:10:11.254656,15.27593097,.0000804,42.9992,265.5675,242.6709,117.4061,0,U,63460,999,7232,.37446E-3,.1006E-3,0
STARLINK-33706,2025-070B,2026-07-14T05:15:44.012160,15.27585262,.0000877,42.9964,265.5613,199.1209,160.9610,0,U,63461,999,7232,.29563E-3,.7883E-4,0
STARLINK-33691,2025-070C,2026-07-14T04:01:43.167072,15.27587961,.0003637,43.0072,265.1820,298.3794,61.6691,0,U,63462,999,7227,.41345E-3,.11136E-3,0
STARLINK-33696,2025-070D,2026-07-14T04:38:43.685088,15.27591246,.000375,43.0070,265.3788,289.3612,70.6834,0,U,63463,999,7232,.43971E-3,.11862E-3,0
